start=new Date('2021-10-31T00:00:00.000Z').valueOf();
sats=[{"MEAN_ELEMENT_THEORY":"SGP4","NORAD_CAT_ID":"45095","RCS_SIZE":"LARGE","CENTER_NAME":"EARTH","TLE_LINE1":"1 45095U 20006BD  21303.40939209  .00001986  00000-0  15224-3 0  9997","TIME_SYSTEM":"UTC","RA_OF_ASC_NODE":"190.1590","ARG_OF_PERICENTER":"71.6394","FILE":"3192905","DECAY_DATE":null,"OBJECT_TYPE":"PAYLOAD","ECCENTRICITY":"0.00019080","EPHEMERIS_TYPE":"0","SEMIMAJOR_AXIS":"6925.363","LAUNCH_DATE":"2020-01-29","MEAN_MOTION_DDOT":"0.0000000000000","OBJECT_ID":"2020-006BD","MEAN_ANOMALY":"288.4802","REF_FRAME":"TEME","SITE":"AFETR","TLE_LINE2":"2 45095  53.0540 190.1590 0001908  71.6394 288.4802 15.06395201 97184","REV_AT_EPOCH":"9718","MEAN_MOTION":"15.06395201","GP_ID":"188513124","COUNTRY_CODE":"US","APOAPSIS":"548.550","EPOCH":"2021-10-30T09:49:31.476576","INCLINATION":"53.0540","MEAN_MOTION_DOT":"0.00001986","PERIAPSIS":"545.907","ELEMENT_SET_NO":"999","PERIOD":"95.592","CLASSIFICATION_TYPE":"U","BSTAR":"0.00015224000000","OBJECT_NAME":"STARLINK-1147"},{"BSTAR":"0.00038078000000","OBJECT_NAME":"STARLINK-1152","CLASSIFICATION_TYPE":"U","EPOCH":"2021-10-30T09:38:54.333600","INCLINATION":"53.0538","PERIAPSIS":"546.049","MEAN_MOTION_DOT":"0.00005396","ELEMENT_SET_NO":"999","PERIOD":"95.592","GP_ID":"188513374","COUNTRY_CODE":"US","APOAPSIS":"548.324","REV_AT_EPOCH":"9717","TLE_LINE2":"2 45096  53.0538 190.1987 0001643  75.7673 284.3499 15.06408789 97175","MEAN_MOTION":"15.06408789","MEAN_ANOMALY":"284.3499","REF_FRAME":"TEME","SITE":"AFETR","MEAN_MOTION_DDOT":"0.0000000000000","OBJECT_ID":"2020-006BE","EPHEMERIS_TYPE":"0","SEMIMAJOR_AXIS":"6925.322","LAUNCH_DATE":"2020-01-29","OBJECT_TYPE":"PAYLOAD","ECCENTRICITY":"0.00016430","DECAY_DATE":null,"TLE_LINE1":"1 45096U 20006BE  21303.40201775  .00005396  00000-0  38078-3 0  9999","RA_OF_ASC_NODE":"190.1987","TIME_SYSTEM":"UTC","FILE":"3192905","ARG_OF_PERICENTER":"75.7673","MEAN_ELEMENT_THEORY":"SGP4","NORAD_CAT_ID":"45096","RCS_SIZE":"LARGE","CENTER_NAME":"EARTH"},{"FILE":"3192905","ARG_OF_PERICENTER":"70.8445","RA_OF_ASC_NODE":"190.2771","TIME_SYSTEM":"UTC","TLE_LINE1":"1 45098U 20006BG  21303.38358974  .00000862  00000-0  76776-4 0  9993","CENTER_NAME":"EARTH","RCS_SIZE":"LARGE","MEAN_ELEMENT_THEORY":"SGP4","NORAD_CAT_ID":"45098","SEMIMAJOR_AXIS":"6925.358","LAUNCH_DATE":"2020-01-29","EPHEMERIS_TYPE":"0","OBJECT_ID":"2020-006BG","MEAN_MOTION_DDOT":"0.0000000000000","DECAY_DATE":null,"ECCENTRICITY":"0.00022270","OBJECT_TYPE":"PAYLOAD","APOAPSIS":"548.766","COUNTRY_CODE":"US","GP_ID":"188513626","SITE":"AFETR","REF_FRAME":"TEME","MEAN_ANOMALY":"289.2785","MEAN_MOTION":"15.06396767","TLE_LINE2":"2 45098  53.0542 190.2771 0002227  70.8445 289.2785 15.06396767 97170","REV_AT_EPOCH":"9717","CLASSIFICATION_TYPE":"U","OBJECT_NAME":"STARLINK-1184","BSTAR":"0.00007677600000","ELEMENT_SET_NO":"999","PERIOD":"95.592","MEAN_MOTION_DOT":"0.00000862","PERIAPSIS":"545.681","EPOCH":"2021-10-30T09:12:22.153536","INCLINATION":"53.0542"},{"DECAY_DATE":null,"ECCENTRICITY":"0.00018570","OBJECT_TYPE":"PAYLOAD","EPHEMERIS_TYPE":"0","LAUNCH_DATE":"2020-01-29","SEMIMAJOR_AXIS":"6925.329","MEAN_MOTION_DDOT":"0.0000000000000","OBJECT_ID":"2020-006BH","NORAD_CAT_ID":"45099","MEAN_ELEMENT_THEORY":"SGP4","CENTER_NAME":"EARTH","RCS_SIZE":"LARGE","RA_OF_ASC_NODE":"190.1077","TIME_SYSTEM":"UTC","TLE_LINE1":"1 45099U 20006BH  21303.41676439  .00005882  00000-0  41335-3 0  9996","ARG_OF_PERICENTER":"70.2961","FILE":"3192905","INCLINATION":"53.0546","EPOCH":"2021-10-30T10:00:08.443296","PERIOD":"95.592","ELEMENT_SET_NO":"999","PERIAPSIS":"545.908","MEAN_MOTION_DOT":"0.00005882","CLASSIFICATION_TYPE":"U","BSTAR":"0.00041335000000","OBJECT_NAME":"STARLINK-1186","MEAN_ANOMALY":"289.8229","SITE":"AFETR","REF_FRAME":"TEME","REV_AT_EPOCH":"9718","TLE_LINE2":"2 45099  53.0546 190.1077 0001857  70.2961 289.8229 15.06406311 97185","MEAN_MOTION":"15.06406311","COUNTRY_CODE":"US","GP_ID":"188513875","APOAPSIS":"548.480"},{"MEAN_ANOMALY":"288.2393","SITE":"AFETR","REF_FRAME":"TEME","REV_AT_EPOCH":"9717","TLE_LINE2":"2 45100  53.0529 190.2806 0001748  71.8786 288.2393 15.06400168 97179","MEAN_MOTION":"15.06400168","COUNTRY_CODE":"US","GP_ID":"188512625","APOAPSIS":"548.424","EPOCH":"2021-10-30T09:07:03.084384","INCLINATION":"53.0529","PERIOD":"95.592","ELEMENT_SET_NO":"999","MEAN_MOTION_DOT":"0.00001516","PERIAPSIS":"546.002","CLASSIFICATION_TYPE":"U","BSTAR":"0.00012067000000","OBJECT_NAME":"STARLINK-1193","NORAD_CAT_ID":"45100","MEAN_ELEMENT_THEORY":"SGP4","CENTER_NAME":"EARTH","RCS_SIZE":"LARGE","TIME_SYSTEM":"UTC","RA_OF_ASC_NODE":"190.2806","TLE_LINE1":"1 45100U 20006BJ  21303.37989681  .00001516  00000-0  12067-3 0  9990","FILE":"3192905","ARG_OF_PERICENTER":"71.8786","DECAY_DATE":null,"ECCENTRICITY":"0.00017480","OBJECT_TYPE":"PAYLOAD","EPHEMERIS_TYPE":"0","SEMIMAJOR_AXIS":"6925.348","LAUNCH_DATE":"2020-01-29","MEAN_MOTION_DDOT":"0.0000000000000","OBJECT_ID":"2020-006BJ"},{"REV_AT_EPOCH":"9713","TLE_LINE2":"2 45101  53.0530 191.4874 0001911  73.5265 286.5934 15.06408683 97131","MEAN_MOTION":"15.06408683","MEAN_ANOMALY":"286.5934","SITE":"AFETR","REF_FRAME":"TEME","COUNTRY_CODE":"US","GP_ID":"188512875","APOAPSIS":"548.510","INCLINATION":"53.0530","EPOCH":"2021-10-30T02:39:34.846272","ELEMENT_SET_NO":"999","PERIOD":"95.592","PERIAPSIS":"545.864","MEAN_MOTION_DOT":"0.00002193","BSTAR":"0.00016604000000","OBJECT_NAME":"STARLINK-1194","CLASSIFICATION_TYPE":"U","MEAN_ELEMENT_THEORY":"SGP4","NORAD_CAT_ID":"45101","CENTER_NAME":"EARTH","RCS_SIZE":"LARGE","TIME_SYSTEM":"UTC","RA_OF_ASC_NODE":"191.4874","TLE_LINE1":"1 45101U 20006BK  21303.11081998  .00002193  00000-0  16604-3 0  9990","FILE":"3192905","ARG_OF_PERICENTER":"73.5265","ECCENTRICITY":"0.00019110","OBJECT_TYPE":"PAYLOAD","DECAY_DATE":null,"MEAN_MOTION_DDOT":"0.0000000000000","OBJECT_ID":"2020-006BK","EPHEMERIS_TYPE":"0","LAUNCH_DATE":"2020-01-29","SEMIMAJOR_AXIS":"6925.322"},{"CENTER_NAME":"EARTH","RCS_SIZE":"LARGE","NORAD_CAT_ID":"45102","MEAN_ELEMENT_THEORY":"SGP4","ARG_OF_PERICENTER":"74.1140","FILE":"3192905","TIME_SYSTEM":"UTC","RA_OF_ASC_NODE":"190.2134","TLE_LINE1":"1 45102U 20006BL  21303.39832687  .00001221  00000-0  10082-3 0  9995","ECCENTRICITY":"0.00017910","OBJECT_TYPE":"PAYLOAD","DECAY_DATE":null,"OBJECT_ID":"2020-006BL","MEAN_MOTION_DDOT":"0.0000000000000","SEMIMAJOR_AXIS":"6925.335","LAUNCH_DATE":"2020-01-29","EPHEMERIS_TYPE":"0","MEAN_MOTION":"15.06404558","TLE_LINE2":"2 45102  53.0548 190.2134 0001791  74.1140 286.0046 15.06404558 97172","REV_AT_EPOCH":"9717","SITE":"AFETR","REF_FRAME":"TEME","MEAN_ANOMALY":"286.0046","APOAPSIS":"548.440","COUNTRY_CODE":"US","GP_ID":"188514126","PERIOD":"95.592","ELEMENT_SET_NO":"999","PERIAPSIS":"545.959","MEAN_MOTION_DOT":"0.00001221","INCLINATION":"53.0548","EPOCH":"2021-10-30T09:33:35.441568","OBJECT_NAME":"STARLINK-1195","BSTAR":"0.00010082000000","CLASSIFICATION_TYPE":"U"},{"DECAY_DATE":null,"OBJECT_TYPE":"PAYLOAD","ECCENTRICITY":"0.00017120","EPHEMERIS_TYPE":"0","SEMIMAJOR_AXIS":"6925.342","LAUNCH_DATE":"2020-01-29","MEAN_MOTION_DDOT":"0.0000000000000","OBJECT_ID":"2020-006BM","MEAN_ELEMENT_THEORY":"SGP4","NORAD_CAT_ID":"45103","RCS_SIZE":"LARGE","CENTER_NAME":"EARTH","TLE_LINE1":"1 45103U 20006BM  21303.49047798  .00001041  00000-0  88793-4 0  9993","TIME_SYSTEM":"UTC","RA_OF_ASC_NODE":"189.8006","ARG_OF_PERICENTER":"79.4806","FILE":"3192905","EPOCH":"2021-10-30T11:46:17.297472","INCLINATION":"53.0536","MEAN_MOTION_DOT":"0.00001041","PERIAPSIS":"546.022","PERIOD":"95.592","ELEMENT_SET_NO":"999","CLASSIFICATION_TYPE":"U","BSTAR":"0.00008879300000","OBJECT_NAME":"STARLINK-1196","MEAN_ANOMALY":"280.6376","REF_FRAME":"TEME","SITE":"AFETR","REV_AT_EPOCH":"9719","TLE_LINE2":"2 45103  53.0536 189.8006 0001712  79.4806 280.6376 15.06402098 97197","MEAN_MOTION":"15.06402098","GP_ID":"188514375","COUNTRY_CODE":"US","APOAPSIS":"548.393"},{"MEAN_ELEMENT_THEORY":"SGP4","NORAD_CAT_ID":"45178","CENTER_NAME":"EARTH","RCS_SIZE":"LARGE","RA_OF_ASC_NODE":"349.8185","TIME_SYSTEM":"UTC","TLE_LINE1":"1 45178U 20012A   21303.48310417 -.00000337  00000-0 -37030-5 0  9990","FILE":"3192905","ARG_OF_PERICENTER":"68.0385","DECAY_DATE":null,"ECCENTRICITY":"0.00015220","OBJECT_TYPE":"PAYLOAD","EPHEMERIS_TYPE":"0","SEMIMAJOR_AXIS":"6925.365","LAUNCH_DATE":"2020-02-17","MEAN_MOTION_DDOT":"0.0000000000000","OBJECT_ID":"2020-012A","MEAN_ANOMALY":"292.0765","SITE":"AFETR","REF_FRAME":"TEME","TLE_LINE2":"2 45178  53.0547 349.8185 0001522  68.0385 292.0765 15.06394717 94949","REV_AT_EPOCH":"9494","MEAN_MOTION":"15.06394717","COUNTRY_CODE":"US","GP_ID":"188513382","APOAPSIS":"548.284","INCLINATION":"53.0547","EPOCH":"2021-10-30T11:35:40.200288","ELEMENT_SET_NO":"999","PERIOD":"95.592","PERIAPSIS":"546.176","MEAN_MOTION_DOT":"-0.00000337","CLASSIFICATION_TYPE":"U","BSTAR":"-0.00000370300000","OBJECT_NAME":"STARLINK-1138"},{"CENTER_NAME":"EARTH","RCS_SIZE":"LARGE","MEAN_ELEMENT_THEORY":"SGP4","NORAD_CAT_ID":"45179","ARG_OF_PERICENTER":"93.6909","FILE":"3192905","TIME_SYSTEM":"UTC","RA_OF_ASC_NODE":"350.1186","TLE_LINE1":"1 45179U 20012B   21303.42043957  .00000770  00000-0  70592-4 0  9995","DECAY_DATE":null,"ECCENTRICITY":"0.00011710","OBJECT_TYPE":"PAYLOAD","SEMIMAJOR_AXIS":"6925.332","LAUNCH_DATE":"2020-02-17","EPHEMERIS_TYPE":"0","OBJECT_ID":"2020-012B","MEAN_MOTION_DDOT":"0.0000000000000","SITE":"AFETR","REF_FRAME":"TEME","MEAN_ANOMALY":"266.4213","MEAN_MOTION":"15.06405251","REV_AT_EPOCH":"9499","TLE_LINE2":"2 45179  53.0545 350.1186 0001171  93.6909 266.4213 15.06405251 94994","APOAPSIS":"548.008","COUNTRY_CODE":"US","GP_ID":"188513634","ELEMENT_SET_NO":"999","PERIOD":"95.592","PERIAPSIS":"546.387","MEAN_MOTION_DOT":"0.00000770","INCLINATION":"53.0545","EPOCH":"2021-10-30T10:05:25.978848","CLASSIFICATION_TYPE":"U","OBJECT_NAME":"STARLINK-1143","BSTAR":"0.00007059200000"}];
